[{"OBJECT_NAME":"STARLINK-32819","OBJECT_ID":"2025-031Q","EPOCH":"2026-03-09T05:12:56.047104","MEAN_MOTION":15.27593786,"ECCENTRICITY":7.12e-5,"INCLINATION":42.9949,"RA_OF_ASC_NODE":145.9446,"ARG_OF_PERICENTER":140.1523,"MEAN_ANOMALY":219.9381,"EPHEMERIS_TYPE":0,"CLASSIFICATION_TYPE":"U","NORAD_CAT_ID":62995,"ELEMENT_SET_NO":999,"REV_AT_EPOCH":6102,"BSTAR":0.00083900827,"MEAN_MOTION_DOT":0.00022907,"MEAN_MOTION_DDOT":0},{"OBJECT_NAME":"COSMOS 1220 DEB","OBJECT_ID":"1980-089CJ","EPOCH":"2026-03-09T07:43:28.093152","MEAN_MOTION":15.40496181,"ECCENTRICITY":0.00585687,"INCLINATION":64.9701,"RA_OF_ASC_NODE":55.6717,"ARG_OF_PERICENTER":278.4574,"MEAN_ANOMALY":80.9929,"EPHEMERIS_TYPE":0,"CLASSIFICATION_TYPE":"U","NORAD_CAT_ID":25795,"ELEMENT_SET_NO":999,"REV_AT_EPOCH":55668,"BSTAR":0.00051020882,"MEAN_MOTION_DOT":0.00021921,"MEAN_MOTION_DDOT":0}]
